[{"OBJECT_NAME":"ONEWEB-0321","OBJECT_ID":"2021-083F","EPOCH":"2026-04-17T01:33:52.243200","MEAN_MOTION":13.20770957,"ECCENTRICITY":0.000188,"INCLINATION":87.9136,"RA_OF_ASC_NODE":286.6357,"ARG_OF_PERICENTER":83.3923,"MEAN_ANOMALY":276.7425,"EPHEMERIS_TYPE":0,"CLASSIFICATION_TYPE":"U","NORAD_CAT_ID":49191,"ELEMENT_SET_NO":999,"REV_AT_EPOCH":22876,"BSTAR":-0.00028714,"MEAN_MOTION_DOT":-1.04e-06,"MEAN_MOTION_DDOT":0.0},{"OBJECT_NAME":"ONEWEB-0322","OBJECT_ID":"2021-083G","EPOCH":"2026-04-17T03:17:29.990688","MEAN_MOTION":13.13469623,"ECCENTRICITY":0.0002161,"INCLINATION":87.8968,"RA_OF_ASC_NODE":332.3986,"ARG_OF_PERICENTER":79.889,"MEAN_ANOMALY":280.2483,"EPHEMERIS_TYPE":0,"CLASSIFICATION_TYPE":"U","NORAD_CAT_ID":49192,"ELEMENT_SET_NO":999,"REV_AT_EPOCH":22290,"BSTAR":0.00049588,"MEAN_MOTION_DOT":1.94e-06,"MEAN_MOTION_DDOT":0.0},{"OBJECT_NAME":"ONEWEB-0324","OBJECT_ID":"2021-083H","EPOCH":"2026-04-17T03:08:44.646720","MEAN_MOTION":13.18684854,"ECCENTRICITY":0.0001673,"INCLINATION":87.922,"RA_OF_ASC_NODE":347.5895,"ARG_OF_PERICENTER":77.9651,"MEAN_ANOMALY":282.1668,"EPHEMERIS_TYPE":0,"CLASSIFICATION_TYPE":"U","NORAD_CAT_ID":49193,"ELEMENT_SET_NO":999,"REV_AT_EPOCH":22195,"BSTAR":5.518e-05,"MEAN_MOTION_DOT":3.5e-07,"MEAN_MOTION_DDOT":0.0},{"OBJECT_NAME":"ONEWEB-0325","OBJECT_ID":"2021-083J","EPOCH":"2026-04-17T03:13:30.237600","MEAN_MOTION":13.18685416,"ECCENTRICITY":0.0001792,"INCLINATION":87.9213,"RA_OF_ASC_NODE":347.603,"ARG_OF_PERICENTER":82.9332,"MEAN_ANOMALY":277.2004,"EPHEMERIS_TYPE":0,"CLASSIFICATION_TYPE":"U","NORAD_CAT_ID":49194,"ELEMENT_SET_NO":999,"REV_AT_EPOCH":22196,"BSTAR":0.00018591,"MEAN_MOTION_DOT":8.6e-07,"MEAN_MOTION_DDOT":0.0},{"OBJECT_NAME":"ONEWEB-0326","OBJECT_ID":"2021-083K","EPOCH":"2026-04-17T03:35:04.560576","MEAN_MOTION":13.18685042,"ECCENTRICITY":0.0001687,"INCLINATION":87.922,"RA_OF_ASC_NODE":347.5924,"ARG_OF_PERICENTER":91.1053,"MEAN_ANOMALY":269.0272,"EPHEMERIS_TYPE":0,"CLASSIFICATION_TYPE":"U","NORAD_CAT_ID":49195,"ELEMENT_SET_NO":999,"REV_AT_EPOCH":22195,"BSTAR":0.00023854,"MEAN_MOTION_DOT":1.07e-06,"MEAN_MOTION_DDOT":0.0},{"OBJECT_NAME":"ONEWEB-0327","OBJECT_ID":"2021-083L","EPOCH":"2026-04-17T03:34:40.333152","MEAN_MOTION":13.18684117,"ECCENTRICITY":0.0001808,"INCLINATION":87.9212,"RA_OF_ASC_NODE":347.602,"ARG_OF_PERICENTER":95.3913,"MEAN_ANOMALY":264.7425,"EPHEMERIS_TYPE":0,"CLASSIFICATION_TYPE":"U","NORAD_CAT_ID":49196,"ELEMENT_SET_NO":999,"REV_AT_EPOCH":22197,"BSTAR":2.9846000000000002e-05,"MEAN_MOTION_DOT":2.5e-07,"MEAN_MOTION_DDOT":0.0},{"OBJECT_NAME":"ONEWEB-0328","OBJECT_ID":"2021-083M","EPOCH":"2026-04-17T03:02:52.109664","MEAN_MOTION":13.13470168,"ECCENTRICITY":0.0001595,"INCLINATION":87.8988,"RA_OF_ASC_NODE":332.3667,"ARG_OF_PERICENTER":79.8491,"MEAN_ANOMALY":280.2819,"EPHEMERIS_TYPE":0,"CLASSIFICATION_TYPE":"U","NORAD_CAT_ID":49197,"ELEMENT_SET_NO":999,"REV_AT_EPOCH":22288,"BSTAR":-1.0805e-06,"MEAN_MOTION_DOT":1.2e-07,"MEAN_MOTION_DDOT":0.0},{"OBJECT_NAME":"ONEWEB-0331","OBJECT_ID":"2021-083N","EPOCH":"2026-04-17T03:25:22.040544","MEAN_MOTION":13.18686758,"ECCENTRICITY":0.0001479,"INCLINATION":87.9223,"RA_OF_ASC_NODE":347.5874,"ARG_OF_PERICENTER":89.3299,"MEAN_ANOMALY":270.8003,"EPHEMERIS_TYPE":0,"CLASSIFICATION_TYPE":"U","NORAD_CAT_ID":49198,"ELEMENT_SET_NO":999,"REV_AT_EPOCH":22196,"BSTAR":2.9920000000000005e-05,"MEAN_MOTION_DOT":2.5e-07,"MEAN_MOTION_DDOT":0.0},{"OBJECT_NAME":"ONEWEB-0333","OBJECT_ID":"2021-083P","EPOCH":"2026-04-17T02:55:33.085344","MEAN_MOTION":13.13470633,"ECCENTRICITY":0.0001752,"INCLINATION":87.8978,"RA_OF_ASC_NODE":332.3995,"ARG_OF_PERICENTER":84.7081,"MEAN_ANOMALY":275.4248,"EPHEMERIS_TYPE":0,"CLASSIFICATION_TYPE":"U","NORAD_CAT_ID":49199,"ELEMENT_SET_NO":999,"REV_AT_EPOCH":22289,"BSTAR":-0.00036512000000000003,"MEAN_MOTION_DOT":-1.21e-06,"MEAN_MOTION_DDOT":0.0},{"OBJECT_NAME":"ONEWEB-0334","OBJECT_ID":"2021-083Q","EPOCH":"2026-04-16T18:42:30.921984","MEAN_MOTION":13.20773062,"ECCENTRICITY":0.0002632,"INCLINATION":87.9127,"RA_OF_ASC_NODE":286.7075,"ARG_OF_PERICENTER":80.6856,"MEAN_ANOMALY":279.4575,"EPHEMERIS_TYPE":0,"CLASSIFICATION_TYPE":"U","NORAD_CAT_ID":49200,"ELEMENT_SET_NO":999,"REV_AT_EPOCH":22868,"BSTAR":-4.2153e-05,"MEAN_MOTION_DOT":-4e-08,"MEAN_MOTION_DDOT":0.0},{"OBJECT_NAME":"ONEWEB-0335","OBJECT_ID":"2021-083R","EPOCH":"2026-04-17T02:48:13.644576","MEAN_MOTION":13.13470228,"ECCENTRICITY":0.0001577,"INCLINATION":87.8981,"RA_OF_ASC_NODE":332.3968,"ARG_OF_PERICENTER":87.8934,"MEAN_ANOMALY":272.2376,"EPHEMERIS_TYPE":0,"CLASSIFICATION_TYPE":"U","NORAD_CAT_ID":49201,"ELEMENT_SET_NO":999,"REV_AT_EPOCH":22290,"BSTAR":-0.00068343,"MEAN_MOTION_DOT":-2.37e-06,"MEAN_MOTION_DDOT":0.0},{"OBJECT_NAME":"ONEWEB-0336","OBJECT_ID":"2021-083S","EPOCH":"2026-04-17T03:56:29.850432","MEAN_MOTION":13.13469231,"ECCENTRICITY":0.0001332,"INCLINATION":87.898,"RA_OF_ASC_NODE":332.384,"ARG_OF_PERICENTER":90.2207,"MEAN_ANOMALY":269.9074,"EPHEMERIS_TYPE":0,"CLASSIFICATION_TYPE":"U","NORAD_CAT_ID":49202,"ELEMENT_SET_NO":999,"REV_AT_EPOCH":22290,"BSTAR":0.00046379,"MEAN_MOTION_DOT":1.82e-06,"MEAN_MOTION_DDOT":0.0},{"OBJECT_NAME":"ONEWEB-0337","OBJECT_ID":"2021-083T","EPOCH":"2026-04-17T02:21:13.993632","MEAN_MOTION":13.13468914,"ECCENTRICITY":0.0001503,"INCLINATION":87.8976,"RA_OF_ASC_NODE":332.4043,"ARG_OF_PERICENTER":80.7297,"MEAN_ANOMALY":279.4002,"EPHEMERIS_TYPE":0,"CLASSIFICATION_TYPE":"U","NORAD_CAT_ID":49203,"ELEMENT_SET_NO":999,"REV_AT_EPOCH":22289,"BSTAR":-0.00013038,"MEAN_MOTION_DOT":-3.5e-07,"MEAN_MOTION_DDOT":0.0},{"OBJECT_NAME":"ONEWEB-0338","OBJECT_ID":"2021-083U","EPOCH":"2026-04-16T12:38:53.022912","MEAN_MOTION":13.20773476,"ECCENTRICITY":0.0002043,"INCLINATION":87.9124,"RA_OF_ASC_NODE":286.7628,"ARG_OF_PERICENTER":87.0181,"MEAN_ANOMALY":273.1186,"EPHEMERIS_TYPE":0,"CLASSIFICATION_TYPE":"U","NORAD_CAT_ID":49204,"ELEMENT_SET_NO":999,"REV_AT_EPOCH":22867,"BSTAR":0.00012464,"MEAN_MOTION_DOT":6.4e-07,"MEAN_MOTION_DDOT":0.0},{"OBJECT_NAME":"ONEWEB-0339","OBJECT_ID":"2021-083V","EPOCH":"2026-04-17T02:33:36.355392","MEAN_MOTION":13.1346917,"ECCENTRICITY":0.0001895,"INCLINATION":87.898,"RA_OF_ASC_NODE":332.3935,"ARG_OF_PERICENTER":75.7766,"MEAN_ANOMALY":284.3574,"EPHEMERIS_TYPE":0,"CLASSIFICATION_TYPE":"U","NORAD_CAT_ID":49205,"ELEMENT_SET_NO":999,"REV_AT_EPOCH":22287,"BSTAR":-0.00065453,"MEAN_MOTION_DOT":-2.26e-06,"MEAN_MOTION_DDOT":0.0},{"OBJECT_NAME":"ONEWEB-0340","OBJECT_ID":"2021-083W","EPOCH":"2026-04-17T03:06:22.203360","MEAN_MOTION":13.18683421,"ECCENTRICITY":0.000171,"INCLINATION":87.9222,"RA_OF_ASC_NODE":347.5956,"ARG_OF_PERICENTER":84.4661,"MEAN_ANOMALY":275.6667,"EPHEMERIS_TYPE":0,"CLASSIFICATION_TYPE":"U","NORAD_CAT_ID":49206,"ELEMENT_SET_NO":999,"REV_AT_EPOCH":22192,"BSTAR":-0.00066228,"MEAN_MOTION_DOT":-2.48e-06,"MEAN_MOTION_DDOT":0.0}]