ONEWEB-0321             
1 49191U 21083F   26107.06518800 -.00000104  00000+0 -28714-3 0  9993
2 49191  87.9136 286.6357 0001880  83.3923 276.7425 13.20770957228761
ONEWEB-0322             
1 49192U 21083G   26107.13715267  .00000194  00000+0  49588-3 0  9997
2 49192  87.8968 332.3986 0002161  79.8890 280.2483 13.13469623222908
ONEWEB-0324             
1 49193U 21083H   26107.13107230  .00000035  00000+0  55180-4 0  9993
2 49193  87.9220 347.5895 0001673  77.9651 282.1668 13.18684854221959
ONEWEB-0325             
1 49194U 21083J   26107.13437775  .00000086  00000+0  18591-3 0  9994
2 49194  87.9213 347.6030 0001792  82.9332 277.2004 13.18685416221963
ONEWEB-0326             
1 49195U 21083K   26107.14935834  .00000107  00000+0  23854-3 0  9997
2 49195  87.9220 347.5924 0001687  91.1053 269.0272 13.18685042221958
ONEWEB-0327             
1 49196U 21083L   26107.14907793  .00000025  00000+0  29846-4 0  9998
2 49196  87.9212 347.6020 0001808  95.3913 264.7425 13.18684117221970
ONEWEB-0328             
1 49197U 21083M   26107.12699201  .00000012  00000+0 -10805-5 0  9992
2 49197  87.8988 332.3667 0001595  79.8491 280.2819 13.13470168222884
ONEWEB-0331             
1 49198U 21083N   26107.14261621  .00000025  00000+0  29920-4 0  9996
2 49198  87.9223 347.5874 0001479  89.3299 270.8003 13.18686758221966
ONEWEB-0333             
1 49199U 21083P   26107.12191071 -.00000121  00000+0 -36512-3 0  9999
2 49199  87.8978 332.3995 0001752  84.7081 275.4248 13.13470633222894
ONEWEB-0334             
1 49200U 21083Q   26106.77952456 -.00000004  00000+0 -42153-4 0  9993
2 49200  87.9127 286.7075 0002632  80.6856 279.4575 13.20773062228688
ONEWEB-0335             
1 49201U 21083R   26107.11682459 -.00000237  00000+0 -68343-3 0  9992
2 49201  87.8981 332.3968 0001577  87.8934 272.2376 13.13470228222907
ONEWEB-0336             
1 49202U 21083S   26107.16423438  .00000182  00000+0  46379-3 0  9990
2 49202  87.8980 332.3840 0001332  90.2207 269.9074 13.13469231222906
ONEWEB-0337             
1 49203U 21083T   26107.09807863 -.00000035  00000+0 -13038-3 0  9996
2 49203  87.8976 332.4043 0001503  80.7297 279.4002 13.13468914222893
ONEWEB-0338             
1 49204U 21083U   26106.52700258  .00000064  00000+0  12464-3 0  9996
2 49204  87.9124 286.7628 0002043  87.0181 273.1186 13.20773476228678
ONEWEB-0339             
1 49205U 21083V   26107.10667078 -.00000226  00000+0 -65453-3 0  9992
2 49205  87.8980 332.3935 0001895  75.7766 284.3574 13.13469170222870
ONEWEB-0340             
1 49206U 21083W   26107.12942365 -.00000248  00000+0 -66228-3 0  9995
2 49206  87.9222 347.5956 0001710  84.4661 275.6667 13.18683421221922
